{
  "type": "FeatureCollection",
  "features": [
    {
      "type": "Feature",
      "id": "opoku-ware-ii-hall",
      "properties": {
        "id": "32",
        "building_id": 32,
        "name": "Opoku Ware II Hall",
        "short_name": "OW II Hall",
        "type": "hostel",
        "height": 9,
        "min_height": 0,
        "base_height": 0,
        "color": "#818cf8",
        "extrude": true,
        "entrance": [
          -1.68356,
          6.69762
        ],
        "entrances": [
          {
            "id": "ow2-ent-main",
            "label": "Main Entrance (Quadrangle)",
            "coords": [
              -1.68356,
              6.69762
            ],
            "isPrimary": true
          },
          {
            "id": "ow2-ent-west",
            "label": "West Gate (Mosque Path)",
            "coords": [
              -1.68385,
              6.69777
            ],
            "isPrimary": false
          }
        ],
        "levels": 3
      },
      "geometry": {
        "type": "Polygon",
        "coordinates": [
          [
            [
              -1.683863,
              6.69786
            ],
            [
              -1.683421,
              6.697784
            ],
            [
              -1.68339,
              6.697785
            ],
            [
              -1.683293,
              6.697765
            ],
            [
              -1.683293,
              6.697396
            ],
            [
              -1.68331,
              6.697309
            ],
            [
              -1.683443,
              6.697334
            ],
            [
              -1.683491,
              6.69734
            ],
            [
              -1.683647,
              6.697279
            ],
            [
              -1.683768,
              6.697302
            ],
            [
              -1.68384,
              6.697209
            ],
            [
              -1.683887,
              6.697294
            ],
            [
              -1.683867,
              6.697422
            ],
            [
              -1.683812,
              6.697414
            ],
            [
              -1.683795,
              6.697484
            ],
            [
              -1.683863,
              6.69777
            ],
            [
              -1.683863,
              6.69786
            ]
          ]
        ]
      }
    },
    {
      "type": "Feature",
      "id": "opoku-ware-hall",
      "properties": {
        "id": "11",
        "building_id": 11,
        "name": "Opoku Ware Hall",
        "short_name": "OW Hall",
        "type": "hostel",
        "height": 9,
        "min_height": 0,
        "base_height": 0,
        "color": "#6366f1",
        "extrude": true,
        "entrance": [
          -1.682884,
          6.697843
        ],
        "levels": 3
      },
      "geometry": {
        "type": "Polygon",
        "coordinates": [
          [
            [
              -1.68305,
              6.69808
            ],
            [
              -1.68266,
              6.69808
            ],
            [
              -1.68265,
              6.69763
            ],
            [
              -1.68302,
              6.697614
            ],
            [
              -1.68305,
              6.69808
            ]
          ]
        ]
      }
    },
    {
      "type": "Feature",
      "id": "opoku-ware-mosque",
      "properties": {
        "id": "6",
        "building_id": 6,
        "name": "Opoku Ware Mosque",
        "short_name": "Mosque",
        "type": "facility",
        "height": 7,
        "min_height": 0,
        "base_height": 0,
        "color": "#10b981",
        "extrude": true,
        "entrance": [
          -1.683953,
          6.697788
        ],
        "levels": 2
      },
      "geometry": {
        "type": "Polygon",
        "coordinates": [
          [
            [
              -1.684048,
              6.697729
            ],
            [
              -1.683906,
              6.697853
            ],
            [
              -1.683928,
              6.697704
            ],
            [
              -1.684037,
              6.697781
            ],
            [
              -1.684048,
              6.697729
            ]
          ]
        ]
      }
    },
    {
      "type": "Feature",
      "id": "rob-block",
      "properties": {
        "id": "25",
        "building_id": 25,
        "name": "ROB Block",
        "short_name": "ROB",
        "type": "academic",
        "height": 12,
        "min_height": 0,
        "base_height": 0,
        "color": "#4338ca",
        "extrude": true,
        "entrance": [
          -1.682075,
          6.700459
        ],
        "levels": 4
      },
      "geometry": {
        "type": "Polygon",
        "coordinates": [
          [
            [
              -1.6829,
              6.7007
            ],
            [
              -1.682,
              6.7007
            ],
            [
              -1.682,
              6.7001
            ],
            [
              -1.6829,
              6.7001
            ],
            [
              -1.6829,
              6.7007
            ]
          ]
        ]
      }
    }
  ]
}
